{"type": "FeatureCollection", "features": [ {"type": "Feature", "properties": {"norad_id": 44476, "name": "INTELSAT 39 (IS-39)", "group": "intelsat", "lat": -0.018940004527008187, "lon": -61.587277820536336, "alt_km": 35789.139100597415, "timestamp": "2025-12-04T10:51:49.774092+00:00", "meta": {"OBJECT_NAME": "INTELSAT 39 (IS-39)", "OBJECT_ID": "2019-049B", "EPOCH": "2025-12-04T00:19:24.882816", "MEAN_MOTION": 1.00270104, "ECCENTRICITY": 8.04e-05, "INCLINATION": 0.017, "RA_OF_ASC_NODE": 325.8001, "ARG_OF_PERICENTER": 191.873, "MEAN_ANOMALY": 342.2214, "EPHEMERIS_TYPE": 0, "CLASSIFICATION_TYPE": "U", "NORAD_CAT_ID": 44476, "ELEMENT_SET_NO": 999, "REV_AT_EPOCH": 2317, "BSTAR": 0, "MEAN_MOTION_DOT": 5e-07, "MEAN_MOTION_DDOT": 0}, "tle": {"line1": "1 44476U 19049B   25338.01348244  .00000050  00000+0  00000+0 0  9998", "line2": "2 44476   0.0170 325.8001 0000804 191.8730 342.2214  1.00270104 23171"}}, "geometry": {"type": "Point", "coordinates": [-61.587277820536336, -0.018940004527008187]}}, {"type": "Feature", "properties": {"norad_id": 46114, "name": "GALAXY 30 (G-30)", "group": "intelsat", "lat": 0.02052906318529571, "lon": 111.45973153582663, "alt_km": 35793.97452179862, "timestamp": "2025-12-04T10:51:49.774104+00:00", "meta": {"OBJECT_NAME": "GALAXY 30 (G-30)", "OBJECT_ID": "2020-056C", "EPOCH": "2025-12-03T23:26:07.489248", "MEAN_MOTION": 1.00272904, "ECCENTRICITY": 0.0002471, "INCLINATION": 0.0156, "RA_OF_ASC_NODE": 320.1837, "ARG_OF_PERICENTER": 293.1687, "MEAN_ANOMALY": 46.2489, "EPHEMERIS_TYPE": 0, "CLASSIFICATION_TYPE": "U", "NORAD_CAT_ID": 46114, "ELEMENT_SET_NO": 999, "REV_AT_EPOCH": 1933, "BSTAR": 0, "MEAN_MOTION_DOT": 5.3e-07, "MEAN_MOTION_DDOT": 0}, "tle": {"line1": "1 46114U 20056C   25337.97647557  .00000053  00000+0  00000+0 0  9995", "line2": "2 46114   0.0156 320.1837 0002471 293.1687  46.2489  1.00272904 19338"}}, "geometry": {"type": "Point", "coordinates": [111.45973153582663, 0.02052906318529571]}}, {"type": "Feature", "properties": {"norad_id": 54026, "name": "GALAXY 33 (G-33)", "group": "intelsat", "lat": 0.03115438531514902, "lon": 103.46654692246922, "alt_km": 35792.80574721254, "timestamp": "2025-12-04T10:51:49.774116+00:00", "meta": {"OBJECT_NAME": "GALAXY 33 (G-33)", "OBJECT_ID": "2022-128A", "EPOCH": "2025-12-04T01:06:35.364096", "MEAN_MOTION": 1.00272907, "ECCENTRICITY": 0.0002004, "INCLINATION": 0.0143, "RA_OF_ASC_NODE": 354.3098, "ARG_OF_PERICENTER": 255.559, "MEAN_ANOMALY": 66.9197, "EPHEMERIS_TYPE": 0, "CLASSIFICATION_TYPE": "U", "NORAD_CAT_ID": 54026, "ELEMENT_SET_NO": 999, "REV_AT_EPOCH": 1178, "BSTAR": 0, "MEAN_MOTION_DOT": 9.5e-07, "MEAN_MOTION_DDOT": 0}, "tle": {"line1": "1 54026U 22128A   25338.04624264  .00000095  00000+0  00000+0 0  9993", "line2": "2 54026   0.0143 354.3098 0002004 255.5590  66.9197  1.00272907 11789"}}, "geometry": {"type": "Point", "coordinates": [103.46654692246922, 0.03115438531514902]}}, {"type": "Feature", "properties": {"norad_id": 54027, "name": "GALAXY 34 (G-34)", "group": "intelsat", "lat": 0.028358394379956475, "lon": 107.5191416559439, "alt_km": 35790.69463869688, "timestamp": "2025-12-04T10:51:49.774128+00:00", "meta": {"OBJECT_NAME": "GALAXY 34 (G-34)", "OBJECT_ID": "2022-128B", "EPOCH": "2025-12-03T23:24:52.608096", "MEAN_MOTION": 1.00272182, "ECCENTRICITY": 0.0001452, "INCLINATION": 0.023, "RA_OF_ASC_NODE": 323.1009, "ARG_OF_PERICENTER": 285.0932, "MEAN_ANOMALY": 47.148, "EPHEMERIS_TYPE": 0, "CLASSIFICATION_TYPE": "U", "NORAD_CAT_ID": 54027, "ELEMENT_SET_NO": 999, "REV_AT_EPOCH": 1195, "BSTAR": 0, "MEAN_MOTION_DOT": 0, "MEAN_MOTION_DDOT": 0}, "tle": {"line1": "1 54027U 22128B   25337.97560889  .00000000  00000+0  00000+0 0  9993", "line2": "2 54027   0.0230 323.1009 0001452 285.0932  47.1480  1.00272182 11957"}}, "geometry": {"type": "Point", "coordinates": [107.5191416559439, 0.028358394379956475]}}, {"type": "Feature", "properties": {"norad_id": 54243, "name": "GALAXY 31 (G-31)", "group": "intelsat", "lat": 0.025454871637390533, "lon": 115.43531926230224, "alt_km": 35793.81750345914, "timestamp": "2025-12-04T10:51:49.774139+00:00", "meta": {"OBJECT_NAME": "GALAXY 31 (G-31)", "OBJECT_ID": "2022-153A", "EPOCH": "2025-12-03T13:10:46.529760", "MEAN_MOTION": 1.00271978, "ECCENTRICITY": 0.00020966, "INCLINATION": 0.013, "RA_OF_ASC_NODE": 357.9065, "ARG_OF_PERICENTER": 269.749, "MEAN_ANOMALY": 241.6575, "EPHEMERIS_TYPE": 0, "CLASSIFICATION_TYPE": "U", "NORAD_CAT_ID": 54243, "ELEMENT_SET_NO": 999, "REV_AT_EPOCH": 517, "BSTAR": 0, "MEAN_MOTION_DOT": 0, "MEAN_MOTION_DDOT": 0}, "tle": {"line1": "1 54243U 22153A   25337.54914965  .00000000  00000+0  00000+0 0  9992", "line2": "2 54243   0.0130 357.9065 0002096 269.7490 241.6575  1.00271978  5171"}}, "geometry": {"type": "Point", "coordinates": [115.43531926230224, 0.025454871637390533]}}, {"type": "Feature", "properties": {"norad_id": 54244, "name": "GALAXY 32 (G-32)", "group": "intelsat", "lat": 0.0004626866714460678, "lon": 145.45182585656724, "alt_km": 35796.46475635204, "timestamp": "2025-12-04T10:51:49.774151+00:00", "meta": {"OBJECT_NAME": "GALAXY 32 (G-32)", "OBJECT_ID": "2022-153B", "EPOCH": "2025-12-03T13:19:23.206080", "MEAN_MOTION": 1.00270437, "ECCENTRICITY": 0.00025394, "INCLINATION": 0.0105, "RA_OF_ASC_NODE": 329.1215, "ARG_OF_PERICENTER": 335.3454, "MEAN_ANOMALY": 237.0261, "EPHEMERIS_TYPE": 0, "CLASSIFICATION_TYPE": "U", "NORAD_CAT_ID": 54244, "ELEMENT_SET_NO": 999, "REV_AT_EPOCH": 1118, "BSTAR": 0, "MEAN_MOTION_DOT": -1.56e-06, "MEAN_MOTION_DDOT": 0}, "tle": {"line1": "1 54244U 22153B   25337.55512970 -.00000156  00000+0  00000+0 0  9997", "line2": "2 54244   0.0105 329.1215 0002539 335.3454 237.0261  1.00270437 11182"}}, "geometry": {"type": "Point", "coordinates": [145.45182585656724, 0.0004626866714460678]}}, {"type": "Feature", "properties": {"norad_id": 54741, "name": "GALAXY 35 (G-35)", "group": "intelsat", "lat": 0.007069361244303236, "lon": 143.33215778051604, "alt_km": 35791.44857142339, "timestamp": "2025-12-04T10:51:49.774162+00:00", "meta": {"OBJECT_NAME": "GALAXY 35 (G-35)", "OBJECT_ID": "2022-170A", "EPOCH": "2025-12-03T13:18:45.764640", "MEAN_MOTION": 1.00275104, "ECCENTRICITY": 0.00029467, "INCLINATION": 0.0153, "RA_OF_ASC_NODE": 341.0255, "ARG_OF_PERICENTER": 282.5297, "MEAN_ANOMALY": 275.6654, "EPHEMERIS_TYPE": 0, "CLASSIFICATION_TYPE": "U", "NORAD_CAT_ID": 54741, "ELEMENT_SET_NO": 999, "REV_AT_EPOCH": 1093, "BSTAR": 0, "MEAN_MOTION_DOT": 0, "MEAN_MOTION_DDOT": 0}, "tle": {"line1": "1 54741U 22170A   25337.55469635  .00000000  00000+0  00000+0 0  9994", "line2": "2 54741   0.0153 341.0255 0002946 282.5297 275.6654  1.00275104 10936"}}, "geometry": {"type": "Point", "coordinates": [143.33215778051604, 0.007069361244303236]}}, {"type": "Feature", "properties": {"norad_id": 54742, "name": "GALAXY 36 (G-36)", "group": "intelsat", "lat": -0.015668622938867886, "lon": 147.45519244165487, "alt_km": 35787.09411125193, "timestamp": "2025-12-04T10:51:49.774174+00:00", "meta": {"OBJECT_NAME": "GALAXY 36 (G-36)", "OBJECT_ID": "2022-170B", "EPOCH": "2025-12-03T13:20:00.645792", "MEAN_MOTION": 1.00270357, "ECCENTRICITY": 6.037e-05, "INCLINATION": 0.0156, "RA_OF_ASC_NODE": 264.3766, "ARG_OF_PERICENTER": 345.6709, "MEAN_ANOMALY": 293.6018, "EPHEMERIS_TYPE": 0, "CLASSIFICATION_TYPE": "U", "NORAD_CAT_ID": 54742, "ELEMENT_SET_NO": 999, "REV_AT_EPOCH": 1081, "BSTAR": 0, "MEAN_MOTION_DOT": -1.67e-06, "MEAN_MOTION_DDOT": 0}, "tle": {"line1": "1 54742U 22170B   25337.55556303 -.00000167  00000+0  00000+0 0  9999", "line2": "2 54742   0.0156 264.3766 0000603 345.6709 293.6018  1.00270357 10817"}}, "geometry": {"type": "Point", "coordinates": [147.45519244165487, -0.015668622938867886]}}, {"type": "Feature", "properties": {"norad_id": 57493, "name": "GALAXY 37 (G-37)", "group": "intelsat", "lat": 0.013866529349226822, "lon": 109.4699481449373, "alt_km": 35794.708072425936, "timestamp": "2025-12-04T10:51:49.774186+00:00", "meta": {"OBJECT_NAME": "GALAXY 37 (G-37)", "OBJECT_ID": "2023-112A", "EPOCH": "2025-12-03T16:22:38.540064", "MEAN_MOTION": 1.00273078, "ECCENTRICITY": 0.00024793, "INCLINATION": 0.0143, "RA_OF_ASC_NODE": 302.8949, "ARG_OF_PERICENTER": 316.0904, "MEAN_ANOMALY": 292.4607, "EPHEMERIS_TYPE": 0, "CLASSIFICATION_TYPE": "U", "NORAD_CAT_ID": 57493, "ELEMENT_SET_NO": 999, "REV_AT_EPOCH": 858, "BSTAR": 0, "MEAN_MOTION_DOT": 6.5e-07, "MEAN_MOTION_DDOT": 0}, "tle": {"line1": "1 57493U 23112A   25337.68239051  .00000065  00000+0  00000+0 0  9990", "line2": "2 57493   0.0143 302.8949 0002479 316.0904 292.4607  1.00273078  8587"}}, "geometry": {"type": "Point", "coordinates": [109.4699481449373, 0.013866529349226822]}}]}